ONEWEB-0549             
1 56051U 23043F   25052.87136761 -.00000004  00000+0 -41370-4 0  9996
2 56051  87.9354 339.7197 0002230  77.7310 282.4073 13.21828290 95686
ONEWEB-0550             
1 56052U 23043G   25052.78305146  .00000002  00000+0 -27280-4 0  9993
2 56052  87.9350 339.7359 0001763  83.1688 276.9647 13.21828403 94761
ONEWEB-0551             
1 56053U 23043H   25052.92926970 -.00000086  00000+0 -26289-3 0  9994
2 56053  87.9134 354.8833 0002089  81.2715 278.8651 13.15547450 94162
ONEWEB-0552             
1 56054U 23043J   25052.85244720  .00000007  00000+0 -14950-4 0  9998
2 56054  87.9349 339.7314 0001954  86.4693 273.6664 13.21831001 95689
ONEWEB-0553             
1 56055U 23043K   25053.10913832  .00000059  00000+0  12006-3 0  9990
2 56055  87.9120 324.4604 0001635  67.4329 292.6975 13.16593779 96713
ONEWEB-0554             
1 56056U 23043L   25053.47645378  .00000006  00000+0 -17868-4 0  9993
2 56056  87.9121 324.4152 0001566  99.1256 261.0052 13.16593184 96746
ONEWEB-0555             
1 56057U 23043M   25053.43847476  .00000142  00000+0  33747-3 0  9996
2 56057  87.9122 324.3890 0001254  58.9834 301.1420 13.16597264 96743
ONEWEB-0557             
1 56058U 23043N   25052.76873505 -.00000032  00000+0 -11618-3 0  9997
2 56058  87.9125 324.5464 0000744  67.7909 292.3301 13.16594930 95745
